STARLINK-35697          
1 66539U 25265Z   25350.18579495  .00059417  00000+0  10095-2 0  9994
2 66539  43.0005  33.7581 0001707 267.5760  92.4905 15.50619242  4297
STARLINK-35818          
1 66540U 25265AA  25350.18545081  .00053359  00000+0  90779-3 0  9997
2 66540  42.9996  33.7531 0001249 232.8718 127.2028 15.50621645  4293
STARLINK-35796          
1 66541U 25265AB  25350.25003472  .00006982  00000+0  17431-3 0  9993
2 66541  43.0008  33.5876 0001056 270.8143   4.4460 15.40687975  5553
STARLINK-35833          
1 66542U 25265AC  25350.25003472  .00021855  00000+0  52946-3 0  9990
2 66542  43.0005  33.4680 0001049 286.1263  38.9345 15.40670341  5551
STARLINK-35315          
1 66543U 25265AD  25349.86239112 -.00008820  00000+0 -14519-3 0  9991
2 66543  43.0020  35.6314 0002148  30.7647 329.3339 15.50477986  4243
STARLINK-35728          
1 66544U 25265AE  25350.11966449  .00043595  00000+0  74383-3 0  9993
2 66544  43.0001  34.1212 0001013 252.2214 107.8535 15.50615488  4287
SHIJIAN-30A             
1 66545U 25266A   25350.64757270  .00009795  00000+0  52479-3 0  9999
2 66545  51.7988 314.5549 0012987  10.3840 349.7403 15.15538105  4176
SHIJIAN-30B             
1 66546U 25266B   25350.51689469  .00010587  00000+0  56654-3 0  9990
2 66546  51.7971 315.1764 0010703  13.2697 346.8559 15.15512378  4153
SHIJIAN-30C             
1 66547U 25266C   25350.64931919  .00009902  00000+0  53164-3 0  9997
2 66547  51.7982 314.5641 0011576   5.4373 354.6727 15.15460447  4171
CZ-2C R/B               
1 66548U 25266D   25350.32429715  .00008836  00000+0  27931-3 0  9997
2 66548  52.0545 314.2012 0083762 185.4346 174.5740 15.30255148  4165
SHIJIAN-28              
1 66549U 25277A   25350.72594395 -.00000331  00000+0  00000+0 0  9998
2 66549   5.0087 274.8943 0000964 136.0381  52.8688  1.00270392   326
CZ-7A R/B               
1 66550U 25277B   25346.99983870  .01807848 -25568-6  22608-2 0  9997
2 66550  14.3833 269.7494 7016496 189.2871 143.2042  2.69999213   350
