CCSDS_OMM_VERS = 2.0
CREATION_DATE  = 
ORIGINATOR     = 

OBJECT_NAME    = STARLINK-35697
OBJECT_ID      = 2025-265Z
CENTER_NAME    = EARTH
REF_FRAME      = TEME
TIME_SYSTEM    = UTC
MEAN_ELEMENT_THEORY = SGP/SGP4

EPOCH          = 2025-12-16T04:27:32.683680
MEAN_MOTION    = 15.50619242
ECCENTRICITY   = .00017071
INCLINATION    = 43.0005
RA_OF_ASC_NODE = 33.7581
ARG_OF_PERICENTER = 267.5760
MEAN_ANOMALY   = 92.4905

EPHEMERIS_TYPE = 0
CLASSIFICATION_TYPE = U
NORAD_CAT_ID   = 66539
ELEMENT_SET_NO = 999
REV_AT_EPOCH   = 429
BSTAR          = .10094892E-2
MEAN_MOTION_DOT = .59417E-3
MEAN_MOTION_DDOT = 0

CCSDS_OMM_VERS = 2.0
CREATION_DATE  = 
ORIGINATOR     = 

OBJECT_NAME    = STARLINK-35818
OBJECT_ID      = 2025-265AA
CENTER_NAME    = EARTH
REF_FRAME      = TEME
TIME_SYSTEM    = UTC
MEAN_ELEMENT_THEORY = SGP/SGP4

EPOCH          = 2025-12-16T04:27:02.949984
MEAN_MOTION    = 15.50621645
ECCENTRICITY   = .0001249
INCLINATION    = 42.9996
RA_OF_ASC_NODE = 33.7531
ARG_OF_PERICENTER = 232.8718
MEAN_ANOMALY   = 127.2028

EPHEMERIS_TYPE = 0
CLASSIFICATION_TYPE = U
NORAD_CAT_ID   = 66540
ELEMENT_SET_NO = 999
REV_AT_EPOCH   = 429
BSTAR          = .907791E-3
MEAN_MOTION_DOT = .53359E-3
MEAN_MOTION_DDOT = 0

CCSDS_OMM_VERS = 2.0
CREATION_DATE  = 
ORIGINATOR     = 

OBJECT_NAME    = STARLINK-35796
OBJECT_ID      = 2025-265AB
CENTER_NAME    = EARTH
REF_FRAME      = TEME
TIME_SYSTEM    = UTC
MEAN_ELEMENT_THEORY = SGP/SGP4

EPOCH          = 2025-12-16T06:00:02.999808
MEAN_MOTION    = 15.40687975
ECCENTRICITY   = .00010567
INCLINATION    = 43.0008
RA_OF_ASC_NODE = 33.5876
ARG_OF_PERICENTER = 270.8143
MEAN_ANOMALY   = 4.4460

EPHEMERIS_TYPE = 0
CLASSIFICATION_TYPE = U
NORAD_CAT_ID   = 66541
ELEMENT_SET_NO = 999
REV_AT_EPOCH   = 555
BSTAR          = .17430736E-3
MEAN_MOTION_DOT = .6982E-4
MEAN_MOTION_DDOT = 0

CCSDS_OMM_VERS = 2.0
CREATION_DATE  = 
ORIGINATOR     = 

OBJECT_NAME    = STARLINK-35833
OBJECT_ID      = 2025-265AC
CENTER_NAME    = EARTH
REF_FRAME      = TEME
TIME_SYSTEM    = UTC
MEAN_ELEMENT_THEORY = SGP/SGP4

EPOCH          = 2025-12-16T06:00:02.999808
MEAN_MOTION    = 15.40670341
ECCENTRICITY   = .00010493
INCLINATION    = 43.0005
RA_OF_ASC_NODE = 33.4680
ARG_OF_PERICENTER = 286.1263
MEAN_ANOMALY   = 38.9345

EPHEMERIS_TYPE = 0
CLASSIFICATION_TYPE = U
NORAD_CAT_ID   = 66542
ELEMENT_SET_NO = 999
REV_AT_EPOCH   = 555
BSTAR          = .52945643E-3
MEAN_MOTION_DOT = .21855E-3
MEAN_MOTION_DDOT = 0

CCSDS_OMM_VERS = 2.0
CREATION_DATE  = 
ORIGINATOR     = 

OBJECT_NAME    = STARLINK-35315
OBJECT_ID      = 2025-265AD
CENTER_NAME    = EARTH
REF_FRAME      = TEME
TIME_SYSTEM    = UTC
MEAN_ELEMENT_THEORY = SGP/SGP4

EPOCH          = 2025-12-15T20:41:50.592768
MEAN_MOTION    = 15.50477986
ECCENTRICITY   = .00021484
INCLINATION    = 43.0020
RA_OF_ASC_NODE = 35.6314
ARG_OF_PERICENTER = 30.7647
MEAN_ANOMALY   = 329.3339

EPHEMERIS_TYPE = 0
CLASSIFICATION_TYPE = U
NORAD_CAT_ID   = 66543
ELEMENT_SET_NO = 999
REV_AT_EPOCH   = 424
BSTAR          = -.14518767E-3
MEAN_MOTION_DOT = -.882E-4
MEAN_MOTION_DDOT = 0

CCSDS_OMM_VERS = 2.0
CREATION_DATE  = 
ORIGINATOR     = 

OBJECT_NAME    = STARLINK-35728
OBJECT_ID      = 2025-265AE
CENTER_NAME    = EARTH
REF_FRAME      = TEME
TIME_SYSTEM    = UTC
MEAN_ELEMENT_THEORY = SGP/SGP4

EPOCH          = 2025-12-16T02:52:19.011936
MEAN_MOTION    = 15.50615488
ECCENTRICITY   = .00010134
INCLINATION    = 43.0001
RA_OF_ASC_NODE = 34.1212
ARG_OF_PERICENTER = 252.2214
MEAN_ANOMALY   = 107.8535

EPHEMERIS_TYPE = 0
CLASSIFICATION_TYPE = U
NORAD_CAT_ID   = 66544
ELEMENT_SET_NO = 999
REV_AT_EPOCH   = 428
BSTAR          = .74383437E-3
MEAN_MOTION_DOT = .43595E-3
MEAN_MOTION_DDOT = 0

CCSDS_OMM_VERS = 2.0
CREATION_DATE  = 
ORIGINATOR     = 

OBJECT_NAME    = SHIJIAN-30A
OBJECT_ID      = 2025-266A
CENTER_NAME    = EARTH
REF_FRAME      = TEME
TIME_SYSTEM    = UTC
MEAN_ELEMENT_THEORY = SGP/SGP4

EPOCH          = 2025-12-16T15:32:30.281280
MEAN_MOTION    = 15.15538105
ECCENTRICITY   = .0012987
INCLINATION    = 51.7988
RA_OF_ASC_NODE = 314.5549
ARG_OF_PERICENTER = 10.3840
MEAN_ANOMALY   = 349.7403

EPHEMERIS_TYPE = 0
CLASSIFICATION_TYPE = U
NORAD_CAT_ID   = 66545
ELEMENT_SET_NO = 999
REV_AT_EPOCH   = 417
BSTAR          = .52479E-3
MEAN_MOTION_DOT = .9795E-4
MEAN_MOTION_DDOT = 0

CCSDS_OMM_VERS = 2.0
CREATION_DATE  = 
ORIGINATOR     = 

OBJECT_NAME    = SHIJIAN-30B
OBJECT_ID      = 2025-266B
CENTER_NAME    = EARTH
REF_FRAME      = TEME
TIME_SYSTEM    = UTC
MEAN_ELEMENT_THEORY = SGP/SGP4

EPOCH          = 2025-12-16T12:24:19.701216
MEAN_MOTION    = 15.15512378
ECCENTRICITY   = .0010703
INCLINATION    = 51.7971
RA_OF_ASC_NODE = 315.1764
ARG_OF_PERICENTER = 13.2697
MEAN_ANOMALY   = 346.8559

EPHEMERIS_TYPE = 0
CLASSIFICATION_TYPE = U
NORAD_CAT_ID   = 66546
ELEMENT_SET_NO = 999
REV_AT_EPOCH   = 415
BSTAR          = .56654E-3
MEAN_MOTION_DOT = .10587E-3
MEAN_MOTION_DDOT = 0

CCSDS_OMM_VERS = 2.0
CREATION_DATE  = 
ORIGINATOR     = 

OBJECT_NAME    = SHIJIAN-30C
OBJECT_ID      = 2025-266C
CENTER_NAME    = EARTH
REF_FRAME      = TEME
TIME_SYSTEM    = UTC
MEAN_ELEMENT_THEORY = SGP/SGP4

EPOCH          = 2025-12-16T15:35:01.178016
MEAN_MOTION    = 15.15460447
ECCENTRICITY   = .0011576
INCLINATION    = 51.7982
RA_OF_ASC_NODE = 314.5641
ARG_OF_PERICENTER = 5.4373
MEAN_ANOMALY   = 354.6727

EPHEMERIS_TYPE = 0
CLASSIFICATION_TYPE = U
NORAD_CAT_ID   = 66547
ELEMENT_SET_NO = 999
REV_AT_EPOCH   = 417
BSTAR          = .53164E-3
MEAN_MOTION_DOT = .9902E-4
MEAN_MOTION_DDOT = 0

CCSDS_OMM_VERS = 2.0
CREATION_DATE  = 
ORIGINATOR     = 

OBJECT_NAME    = CZ-2C R/B
OBJECT_ID      = 2025-266D
CENTER_NAME    = EARTH
REF_FRAME      = TEME
TIME_SYSTEM    = UTC
MEAN_ELEMENT_THEORY = SGP/SGP4

EPOCH          = 2025-12-16T07:46:59.273760
MEAN_MOTION    = 15.30255148
ECCENTRICITY   = .00837621
INCLINATION    = 52.0545
RA_OF_ASC_NODE = 314.2012
ARG_OF_PERICENTER = 185.4346
MEAN_ANOMALY   = 174.5740

EPHEMERIS_TYPE = 0
CLASSIFICATION_TYPE = U
NORAD_CAT_ID   = 66548
ELEMENT_SET_NO = 999
REV_AT_EPOCH   = 416
BSTAR          = .27930663E-3
MEAN_MOTION_DOT = .8836E-4
MEAN_MOTION_DDOT = 0

CCSDS_OMM_VERS = 2.0
CREATION_DATE  = 
ORIGINATOR     = 

OBJECT_NAME    = SHIJIAN-28
OBJECT_ID      = 2025-277A
CENTER_NAME    = EARTH
REF_FRAME      = TEME
TIME_SYSTEM    = UTC
MEAN_ELEMENT_THEORY = SGP/SGP4

EPOCH          = 2025-12-16T17:25:21.557280
MEAN_MOTION    = 1.00270392
ECCENTRICITY   = .0000964
INCLINATION    = 5.0087
RA_OF_ASC_NODE = 274.8943
ARG_OF_PERICENTER = 136.0381
MEAN_ANOMALY   = 52.8688

EPHEMERIS_TYPE = 0
CLASSIFICATION_TYPE = U
NORAD_CAT_ID   = 66549
ELEMENT_SET_NO = 999
REV_AT_EPOCH   = 32
BSTAR          = 0
MEAN_MOTION_DOT = -.331E-5
MEAN_MOTION_DDOT = 0

CCSDS_OMM_VERS = 2.0
CREATION_DATE  = 
ORIGINATOR     = 

OBJECT_NAME    = CZ-7A R/B
OBJECT_ID      = 2025-277B
CENTER_NAME    = EARTH
REF_FRAME      = TEME
TIME_SYSTEM    = UTC
MEAN_ELEMENT_THEORY = SGP/SGP4

EPOCH          = 2025-12-12T23:59:46.063680
MEAN_MOTION    = 2.69999213
ECCENTRICITY   = .70164962
INCLINATION    = 14.3833
RA_OF_ASC_NODE = 269.7494
ARG_OF_PERICENTER = 189.2871
MEAN_ANOMALY   = 143.2042

EPHEMERIS_TYPE = 0
CLASSIFICATION_TYPE = U
NORAD_CAT_ID   = 66550
ELEMENT_SET_NO = 999
REV_AT_EPOCH   = 35
BSTAR          = .22608485E-2
MEAN_MOTION_DOT = .1807848E-1
MEAN_MOTION_DDOT = -.255676E-6

